[{"OBJECT_NAME":"STARLINK-4257","OBJECT_ID":"2022-083BE","EPOCH":"2026-03-09T12:56:42.368064","MEAN_MOTION":15.08836838,"ECCENTRICITY":0.00014728,"INCLINATION":53.217,"RA_OF_ASC_NODE":124.3802,"ARG_OF_PERICENTER":97.3299,"MEAN_ANOMALY":262.7861,"EPHEMERIS_TYPE":0,"CLASSIFICATION_TYPE":"U","NORAD_CAT_ID":53184,"ELEMENT_SET_NO":999,"REV_AT_EPOCH":20190,"BSTAR":2.9831513e-5,"MEAN_MOTION_DOT":1.87e-6,"MEAN_MOTION_DDOT":0},{"OBJECT_NAME":"SL-3 DEB","OBJECT_ID":"1988-032C","EPOCH":"2026-03-09T20:54:05.348736","MEAN_MOTION":15.06065434,"ECCENTRICITY":0.00240661,"INCLINATION":97.6252,"RA_OF_ASC_NODE":41.5186,"ARG_OF_PERICENTER":162.4496,"MEAN_ANOMALY":255.7854,"EPHEMERIS_TYPE":0,"CLASSIFICATION_TYPE":"U","NORAD_CAT_ID":24893,"ELEMENT_SET_NO":999,"REV_AT_EPOCH":81391,"BSTAR":0.00022425917,"MEAN_MOTION_DOT":3.232e-5,"MEAN_MOTION_DDOT":0}]
